[{"OBJECT_NAME":"STARLINK-5842","OBJECT_ID":"2023-064AV","EPOCH":"2026-03-09T11:55:29.925696","MEAN_MOTION":14.98329375,"ECCENTRICITY":0.00029733,"INCLINATION":69.9993,"RA_OF_ASC_NODE":104.9449,"ARG_OF_PERICENTER":261.9443,"MEAN_ANOMALY":98.1379,"EPHEMERIS_TYPE":0,"CLASSIFICATION_TYPE":"U","NORAD_CAT_ID":56491,"ELEMENT_SET_NO":999,"REV_AT_EPOCH":15620,"BSTAR":-1.9688752e-5,"MEAN_MOTION_DOT":-3.28e-6,"MEAN_MOTION_DDOT":0},{"OBJECT_NAME":"NOAA 16 DEB","OBJECT_ID":"2000-055PP","EPOCH":"2026-03-07T09:37:02.399808","MEAN_MOTION":14.94870962,"ECCENTRICITY":0.00127779,"INCLINATION":98.9453,"RA_OF_ASC_NODE":285.7448,"ARG_OF_PERICENTER":347.412,"MEAN_ANOMALY":12.6776,"EPHEMERIS_TYPE":0,"CLASSIFICATION_TYPE":"U","NORAD_CAT_ID":41709,"ELEMENT_SET_NO":999,"REV_AT_EPOCH":51965,"BSTAR":0.009194972,"MEAN_MOTION_DOT":0.00101727,"MEAN_MOTION_DDOT":0}]
